start=new Date('2021-12-16T00:00:00.000Z').valueOf();
sats=[{"CLASSIFICATION_TYPE":"U","EPHEMERIS_TYPE":"0","OBJECT_NAME":"STARLINK-1964","NORAD_CAT_ID":"47565","PERIOD":"95.592","MEAN_MOTION_DOT":"0.00001364","INCLINATION":"53.0559","CENTER_NAME":"EARTH","REF_FRAME":"TEME","RCS_SIZE":"LARGE","OBJECT_TYPE":"PAYLOAD","COUNTRY_CODE":"US","FILE":"3241542","BSTAR":"0.00011046000000","LAUNCH_DATE":"2021-02-04","EPOCH":"2021-12-15T19:20:11.271264","GP_ID":"191799374","TLE_LINE2":"2 47565  53.0559 106.8727 0001659  90.4502 269.6677 15.06401436 48081","ELEMENT_SET_NO":"999","OBJECT_ID":"2021-009T","REV_AT_EPOCH":"4808","PERIAPSIS":"546.060","RA_OF_ASC_NODE":"106.8727","TIME_SYSTEM":"UTC","MEAN_ANOMALY":"269.6677","TLE_LINE1":"1 47565U 21009T   21349.80568601  .00001364  00000-0  11046-3 0  9991","MEAN_MOTION":"15.06401436","APOAPSIS":"548.358","MEAN_ELEMENT_THEORY":"SGP4","ECCENTRICITY":"0.00016590","DECAY_DATE":null,"MEAN_MOTION_DDOT":"0.0000000000000","ARG_OF_PERICENTER":"90.4502","SEMIMAJOR_AXIS":"6925.344","SITE":"AFETR"},{"ARG_OF_PERICENTER":"97.2449","MEAN_MOTION_DDOT":"0.0000000000000","MEAN_ELEMENT_THEORY":"SGP4","ECCENTRICITY":"0.00014080","DECAY_DATE":null,"SITE":"AFETR","SEMIMAJOR_AXIS":"6925.384","REV_AT_EPOCH":"4821","OBJECT_ID":"2021-009U","TLE_LINE2":"2 47566  53.0558  97.1944 0001408  97.2449 262.8700 15.06388329 48213","ELEMENT_SET_NO":"999","APOAPSIS":"548.224","TLE_LINE1":"1 47566U 21009U   21349.73289957 -.00000746  00000-0 -31211-4 0  9990","MEAN_ANOMALY":"262.8700","MEAN_MOTION":"15.06388329","TIME_SYSTEM":"UTC","RA_OF_ASC_NODE":"97.1944","PERIAPSIS":"546.274","LAUNCH_DATE":"2021-02-04","EPOCH":"2021-12-15T17:35:22.522848","BSTAR":"-0.00003121100000","FILE":"3241542","COUNTRY_CODE":"US","RCS_SIZE":"LARGE","OBJECT_TYPE":"PAYLOAD","GP_ID":"191797623","INCLINATION":"53.0558","OBJECT_NAME":"STARLINK-1965","MEAN_MOTION_DOT":"-0.00000746","PERIOD":"95.593","NORAD_CAT_ID":"47566","EPHEMERIS_TYPE":"0","CLASSIFICATION_TYPE":"U","REF_FRAME":"TEME","CENTER_NAME":"EARTH"},{"OBJECT_TYPE":"PAYLOAD","RCS_SIZE":"LARGE","COUNTRY_CODE":"US","FILE":"3241542","BSTAR":"0.00007019200000","EPOCH":"2021-12-15T21:39:32.027328","LAUNCH_DATE":"2021-02-04","GP_ID":"191797873","CLASSIFICATION_TYPE":"U","EPHEMERIS_TYPE":"0","PERIOD":"95.593","MEAN_MOTION_DOT":"0.00000764","NORAD_CAT_ID":"47567","OBJECT_NAME":"STARLINK-1966","INCLINATION":"53.0552","CENTER_NAME":"EARTH","REF_FRAME":"TEME","ECCENTRICITY":"0.00019210","DECAY_DATE":null,"MEAN_ELEMENT_THEORY":"SGP4","MEAN_MOTION_DDOT":"0.0000000000000","ARG_OF_PERICENTER":"93.1490","SITE":"AFETR","SEMIMAJOR_AXIS":"6925.381","TLE_LINE2":"2 47567  53.0552 136.4425 0001921  93.1490 266.9719 15.06389539 47678","ELEMENT_SET_NO":"999","OBJECT_ID":"2021-009V","REV_AT_EPOCH":"4767","PERIAPSIS":"545.915","RA_OF_ASC_NODE":"136.4425","TIME_SYSTEM":"UTC","MEAN_MOTION":"15.06389539","MEAN_ANOMALY":"266.9719","TLE_LINE1":"1 47567U 21009V   21349.90245402  .00000764  00000-0  70192-4 0  9996","APOAPSIS":"548.576"},{"COUNTRY_CODE":"US","FILE":"3241542","BSTAR":"0.00008657000000","LAUNCH_DATE":"2021-02-04","EPOCH":"2021-12-15T20:41:10.594752","RCS_SIZE":"LARGE","OBJECT_TYPE":"PAYLOAD","GP_ID":"191799124","OBJECT_NAME":"STARLINK-1967","NORAD_CAT_ID":"47568","PERIOD":"95.593","MEAN_MOTION_DOT":"0.00001008","INCLINATION":"53.0540","CLASSIFICATION_TYPE":"U","EPHEMERIS_TYPE":"0","REF_FRAME":"TEME","CENTER_NAME":"EARTH","ARG_OF_PERICENTER":"95.9594","MEAN_ELEMENT_THEORY":"SGP4","ECCENTRICITY":"0.00018300","DECAY_DATE":null,"MEAN_MOTION_DDOT":"0.0000000000000","SITE":"AFETR","SEMIMAJOR_AXIS":"6925.372","REV_AT_EPOCH":"4767","ELEMENT_SET_NO":"999","TLE_LINE2":"2 47568  53.0540 136.6230 0001830  95.9594 264.1604 15.06392211 47670","OBJECT_ID":"2021-009W","MEAN_ANOMALY":"264.1604","TLE_LINE1":"1 47568U 21009W   21349.86192818  .00001008  00000-0  86570-4 0  9993","MEAN_MOTION":"15.06392211","APOAPSIS":"548.505","PERIAPSIS":"545.970","RA_OF_ASC_NODE":"136.6230","TIME_SYSTEM":"UTC"},{"OBJECT_TYPE":"PAYLOAD","RCS_SIZE":"LARGE","COUNTRY_CODE":"US","FILE":"3241542","BSTAR":"0.00012380000000","EPOCH":"2021-12-15T19:47:26.591712","LAUNCH_DATE":"2021-02-04","GP_ID":"191798875","CLASSIFICATION_TYPE":"U","EPHEMERIS_TYPE":"0","PERIOD":"93.374","MEAN_MOTION_DOT":"0.00004982","NORAD_CAT_ID":"47569","OBJECT_NAME":"STARLINK-1968","INCLINATION":"53.0517","CENTER_NAME":"EARTH","REF_FRAME":"TEME","DECAY_DATE":null,"ECCENTRICITY":"0.00022370","MEAN_ELEMENT_THEORY":"SGP4","MEAN_MOTION_DDOT":"0.0000000000000","ARG_OF_PERICENTER":"29.6855","SITE":"AFETR","SEMIMAJOR_AXIS":"6817.818","ELEMENT_SET_NO":"999","TLE_LINE2":"2 47569  53.0517 101.9440 0002237  29.6855 330.4277 15.42178619 48161","OBJECT_ID":"2021-009X","REV_AT_EPOCH":"4816","PERIAPSIS":"438.158","RA_OF_ASC_NODE":"101.9440","TIME_SYSTEM":"UTC","MEAN_MOTION":"15.42178619","TLE_LINE1":"1 47569U 21009X   21349.82461333  .00004982  00000-0  12380-3 0  9992","MEAN_ANOMALY":"330.4277","APOAPSIS":"441.208"},{"EPOCH":"2021-12-15T18:55:00.533568","LAUNCH_DATE":"2021-02-04","FILE":"3241542","COUNTRY_CODE":"US","BSTAR":"-0.00014165000000","OBJECT_TYPE":"PAYLOAD","RCS_SIZE":"LARGE","GP_ID":"191798123","INCLINATION":"53.0545","NORAD_CAT_ID":"47570","PERIOD":"95.593","MEAN_MOTION_DOT":"-0.00002390","OBJECT_NAME":"STARLINK-1969","EPHEMERIS_TYPE":"0","CLASSIFICATION_TYPE":"U","REF_FRAME":"TEME","CENTER_NAME":"EARTH","ARG_OF_PERICENTER":"100.6669","MEAN_MOTION_DDOT":"0.0000000000000","ECCENTRICITY":"0.00012990","DECAY_DATE":null,"MEAN_ELEMENT_THEORY":"SGP4","SEMIMAJOR_AXIS":"6925.397","SITE":"AFETR","REV_AT_EPOCH":"4822","OBJECT_ID":"2021-009Y","ELEMENT_SET_NO":"999","TLE_LINE2":"2 47570  53.0545  96.9533 0001299 100.6669 259.4467 15.06384074 48222","APOAPSIS":"548.162","MEAN_MOTION":"15.06384074","MEAN_ANOMALY":"259.4467","TLE_LINE1":"1 47570U 21009Y   21349.78820062 -.00002390  00000-0 -14165-3 0  9993","RA_OF_ASC_NODE":"96.9533","TIME_SYSTEM":"UTC","PERIAPSIS":"546.363"},{"CENTER_NAME":"EARTH","REF_FRAME":"TEME","EPHEMERIS_TYPE":"0","CLASSIFICATION_TYPE":"U","INCLINATION":"53.0555","NORAD_CAT_ID":"47571","PERIOD":"95.592","MEAN_MOTION_DOT":"0.00000324","OBJECT_NAME":"STARLINK-1970","GP_ID":"191798373","OBJECT_TYPE":"PAYLOAD","RCS_SIZE":"LARGE","EPOCH":"2021-12-15T15:58:29.823744","LAUNCH_DATE":"2021-02-04","COUNTRY_CODE":"US","FILE":"3241542","BSTAR":"0.00004065800000","TIME_SYSTEM":"UTC","RA_OF_ASC_NODE":"107.5093","PERIAPSIS":"546.293","APOAPSIS":"548.131","MEAN_MOTION":"15.06400356","MEAN_ANOMALY":"284.7074","TLE_LINE1":"1 47571U 21009Z   21349.66562296  .00000324  00000-0  40658-4 0  9993","OBJECT_ID":"2021-009Z","ELEMENT_SET_NO":"999","TLE_LINE2":"2 47571  53.0555 107.5093 0001327  75.4062 284.7074 15.06400356 48061","REV_AT_EPOCH":"4806","SEMIMAJOR_AXIS":"6925.347","SITE":"AFETR","MEAN_MOTION_DDOT":"0.0000000000000","DECAY_DATE":null,"ECCENTRICITY":"0.00013270","MEAN_ELEMENT_THEORY":"SGP4","ARG_OF_PERICENTER":"75.4062"},{"CENTER_NAME":"EARTH","REF_FRAME":"TEME","EPHEMERIS_TYPE":"0","CLASSIFICATION_TYPE":"U","INCLINATION":"53.0573","OBJECT_NAME":"STARLINK-1971","PERIOD":"95.593","NORAD_CAT_ID":"47572","MEAN_MOTION_DOT":"-0.00000246","GP_ID":"191798625","RCS_SIZE":"LARGE","OBJECT_TYPE":"PAYLOAD","LAUNCH_DATE":"2021-02-04","EPOCH":"2021-12-15T20:18:35.097120","BSTAR":"0.00000235930000","FILE":"3241542","COUNTRY_CODE":"US","TIME_SYSTEM":"UTC","RA_OF_ASC_NODE":"106.6786","PERIAPSIS":"546.118","APOAPSIS":"548.356","TLE_LINE1":"1 47572U 21009AA  21349.84623955 -.00000246  00000-0  23593-5 0  9998","MEAN_ANOMALY":"272.4853","MEAN_MOTION":"15.06392278","OBJECT_ID":"2021-009AA","ELEMENT_SET_NO":"999","TLE_LINE2":"2 47572  53.0573 106.6786 0001616  87.6321 272.4853 15.06392278 48090","REV_AT_EPOCH":"4809","SITE":"AFETR","SEMIMAJOR_AXIS":"6925.372","MEAN_MOTION_DDOT":"0.0000000000000","MEAN_ELEMENT_THEORY":"SGP4","DECAY_DATE":null,"ECCENTRICITY":"0.00016160","ARG_OF_PERICENTER":"87.6321"},{"RCS_SIZE":"LARGE","OBJECT_TYPE":"PAYLOAD","FILE":"3241542","BSTAR":"-0.00003694400000","COUNTRY_CODE":"US","LAUNCH_DATE":"2021-02-04","EPOCH":"2021-12-15T18:11:12.024384","GP_ID":"191799375","CLASSIFICATION_TYPE":"U","EPHEMERIS_TYPE":"0","OBJECT_NAME":"STARLINK-1975","NORAD_CAT_ID":"47573","PERIOD":"95.593","MEAN_MOTION_DOT":"-0.00000832","INCLINATION":"53.0563","CENTER_NAME":"EARTH","REF_FRAME":"TEME","MEAN_ELEMENT_THEORY":"SGP4","DECAY_DATE":null,"ECCENTRICITY":"0.00015530","MEAN_MOTION_DDOT":"0.0000000000000","ARG_OF_PERICENTER":"91.4780","SITE":"AFETR","SEMIMAJOR_AXIS":"6925.375","TLE_LINE2":"2 47573  53.0563 107.0769 0001553  91.4780 268.6387 15.06391433 48077","ELEMENT_SET_NO":"999","OBJECT_ID":"2021-009AB","REV_AT_EPOCH":"4807","PERIAPSIS":"546.164","RA_OF_ASC_NODE":"107.0769","TIME_SYSTEM":"UTC","MEAN_ANOMALY":"268.6387","TLE_LINE1":"1 47573U 21009AB  21349.75777806 -.00000832  00000-0 -36944-4 0  9999","MEAN_MOTION":"15.06391433","APOAPSIS":"548.315"},{"MEAN_ANOMALY":"266.5362","TLE_LINE1":"1 47574U 21009AC  21349.83981416  .00000991  00000-0  85424-4 0  9994","MEAN_MOTION":"15.06404722","APOAPSIS":"548.689","PERIAPSIS":"545.709","TIME_SYSTEM":"UTC","RA_OF_ASC_NODE":"136.7136","REV_AT_EPOCH":"4766","TLE_LINE2":"2 47574  53.0555 136.7136 0002152  93.5873 266.5362 15.06404722 47668","ELEMENT_SET_NO":"999","OBJECT_ID":"2021-009AC","SEMIMAJOR_AXIS":"6925.334","SITE":"AFETR","ARG_OF_PERICENTER":"93.5873","MEAN_ELEMENT_THEORY":"SGP4","ECCENTRICITY":"0.00021520","DECAY_DATE":null,"MEAN_MOTION_DDOT":"0.0000000000000","REF_FRAME":"TEME","CENTER_NAME":"EARTH","OBJECT_NAME":"STARLINK-1976","PERIOD":"95.592","MEAN_MOTION_DOT":"0.00000991","NORAD_CAT_ID":"47574","INCLINATION":"53.0555","CLASSIFICATION_TYPE":"U","EPHEMERIS_TYPE":"0","GP_ID":"191797624","FILE":"3241542","BSTAR":"0.00008542400000","COUNTRY_CODE":"US","LAUNCH_DATE":"2021-02-04","EPOCH":"2021-12-15T20:09:19.943424","RCS_SIZE":"LARGE","OBJECT_TYPE":"PAYLOAD"}];
